OBJECT_NAME,OBJECT_ID,EPOCH,MEAN_MOTION,ECCENTRICITY,INCLINATION,RA_OF_ASC_NODE,ARG_OF_PERICENTER,MEAN_ANOMALY,EPHEMERIS_TYPE,CLASSIFICATION_TYPE,NORAD_CAT_ID,ELEMENT_SET_NO,REV_AT_EPOCH,BSTAR,MEAN_MOTION_DOT,MEAN_MOTION_DDOT
SHIJIAN-17 (SJ-17),2016-065A,2026-07-07T15:12:20.534400,0.99862640,.0001975,5.8014,72.3578,43.3739,243.3360,0,U,41838,999,3540,0,.124E-5,0
GOES 16,2016-071A,2026-07-07T16:40:14.145024,1.00271466,.0000494,0.3884,85.6316,71.9669,273.4345,0,U,41866,999,3530,0,-.76E-6,0
TIANLIAN 1-04,2016-072A,2026-07-07T19:43:06.215808,1.00269763,.0043715,0.9206,82.7920,90.0268,225.5577,0,U,41869,999,3550,0,.45E-6,0
WGS F8 (USA 272),2016-075A,2026-07-07T16:10:09.527232,1.00267803,.0000199,0.0484,63.4796,254.8887,359.6596,0,U,41879,999,3502,0,0,0
FENGYUN 4A,2016-077A,2026-07-07T21:10:42.642336,1.00272744,.0008187,2.3716,80.0617,157.8956,129.3467,0,U,41882,999,3513,0,-.343E-5,0
ECHOSTAR 19,2016-079A,2026-07-07T00:29:23.335872,1.00271485,.00013393,0.0191,35.4299,74.0084,85.8112,0,U,41893,999,3490,0,-.124E-5,0
JCSAT-110A (JCSAT-15),2016-082A,2026-07-07T19:24:08.034048,1.00269427,.0000593,0.0250,30.7774,129.3130,166.7816,0,U,41903,999,3496,0,0,0
STAR ONE D1,2016-082B,2026-07-07T13:20:53.207232,1.00271742,.0002227,0.0140,310.7903,157.9986,292.9545,0,U,41904,999,3497,0,-.196E-5,0
TJS-2,2017-001A,2026-07-07T04:48:38.644128,1.00273258,.00008592,0.8817,85.0771,78.8736,259.9617,0,U,41911,999,3491,0,.8E-7,0
SBIRS GEO-4 (USA 273),2017-004A,2026-07-07T12:08:14.862912,1.00285097,.00027594,2.2795,43.7758,64.1098,20.9999,0,U,41937,999,3480,0,.14E-5,0
HISPASAT 36W-1,2017-006A,2026-07-07T04:30:38.615616,1.00271842,.00011804,0.0438,220.6423,241.6750,214.5051,0,U,41942,999,3444,0,-.229E-5,0
TELKOM 3S,2017-007A,2026-07-07T17:43:45.680160,1.00267571,.0002114,0.0206,37.7017,74.6154,197.3240,0,U,41944,999,3434,0,0,0
INTELSAT 32E (IS-32E),2017-007B,2026-07-07T16:57:49.958208,1.00269388,.0000722,0.0172,342.1462,358.9200,155.8895,0,U,41945,999,3443,0,-.254E-5,0
ECHOSTAR 23,2017-014A,2026-07-07T14:56:06.821088,1.00269907,.0001874,0.0242,35.4499,70.8399,293.4293,0,U,42070,999,3412,0,0,0
WGS F9 (USA 275),2017-016A,2026-07-07T06:50:48.403680,1.00274508,.0000591,0.0170,9.9080,150.1916,215.8636,0,U,42075,999,3409,0,0,0
SES-10,2017-017A,2026-07-07T13:25:45.240096,1.00268873,.0002706,0.0161,40.0268,72.2217,307.8201,0,U,42432,999,3395,0,-.257E-5,0
CHINASAT 16 (SJ-13),2017-018A,2026-07-07T21:06:58.000608,1.00271948,.0004513,0.0865,89.2272,132.8348,131.0689,0,U,42662,999,3395,0,-.337E-5,0
KOREASAT 7,2017-023A,2026-07-07T17:43:08.237856,1.00271318,.0000662,0.0177,10.2445,119.2908,177.8207,0,U,42691,999,3357,0,-.347E-5,0
SGDC,2017-023B,2026-07-07T09:57:57.593952,1.00271265,.00024423,0.0041,21.5618,92.1746,246.2917,0,U,42692,999,3360,0,-.234E-5,0
GSAT-9,2017-024A,2026-07-07T17:37:53.740992,1.00270614,.0002227,0.0691,92.1095,24.7053,170.6743,0,U,42695,999,3350,0,-.271E-5,0
INMARSAT 5-F4,2017-025A,2026-07-07T02:02:21.453792,1.00273097,.0000435,0.0237,37.0830,157.5592,177.5202,0,U,42698,999,3347,0,0,0
SES-15,2017-026A,2026-07-07T09:34:54.705792,1.00271208,.00010272,0.0247,324.3391,186.0407,149.5634,0,U,42709,999,763,0,.75E-6,0
QZS-2 (MICHIBIKI-2),2017-028A,2026-07-07T11:47:25.543104,1.00278715,.07582327,39.3970,242.8544,269.5081,92.2444,0,U,42738,999,783,0,-.1E-5,0
VIASAT-2,2017-029A,2026-07-07T18:32:40.988832,1.00274112,.0000285,0.0239,288.6551,292.3964,272.9849,0,U,42740,999,3341,0,-.25E-5,0
EUTELSAT 172B,2017-029B,2026-07-07T12:10:57.899712,1.00271823,.00000203,0.0310,127.0818,206.5956,306.5405,0,U,42741,999,3394,0,.1E-6,0
GSAT-19,2017-031A,2026-07-07T17:23:47.592960,1.00271904,.0006504,0.0188,84.2325,0.1101,150.1751,0,U,42747,999,3335,0,.14E-5,0
ECHOSTAR 21,2017-032A,2026-07-07T17:13:03.498240,1.00271501,.0002201,1.7701,356.9850,101.6762,95.5389,0,U,42749,999,3330,0,.8E-6,0
BULGARIASAT-1,2017-038A,2026-07-07T17:10:41.225088,1.00272436,.0003123,0.0208,291.8674,180.1316,73.2405,0,U,42801,999,3305,0,.26E-6,0
HELLAS-SAT 3,2017-040A,2026-07-06T20:45:53.221248,1.00273705,.00036901,0.0589,55.1265,10.8786,209.3183,0,U,42814,999,3300,0,.167E-5,0
GSAT-17,2017-040B,2026-07-07T17:36:46.348992,1.00271506,.000185,0.0525,89.0591,173.2833,21.0308,0,U,42815,999,3299,0,-.242E-5,0
INTELSAT 35E (IS-35E),2017-041A,2026-07-07T17:00:19.717056,1.00269717,.0001632,0.0210,22.2257,86.0046,38.0382,0,U,42818,999,3302,0,0,0
COSMOS 2520,2017-046A,2026-07-07T10:32:19.688064,1.00273380,.00005141,0.0358,104.0602,42.7739,341.6432,0,U,42907,999,3260,0,.152E-5,0
