SHIJIAN-17 (SJ-17)      
1 41838U 16065A   26188.63357100  .00000124  00000+0  00000+0 0  9997
2 41838   5.8014  72.3578 0001975  43.3739 243.3360  0.99862640 35404
GOES 16                 
1 41866U 16071A   26188.69460816 -.00000076  00000+0  00000+0 0  9997
2 41866   0.3884  85.6316 0000494  71.9669 273.4345  1.00271466 35300
TIANLIAN 1-04           
1 41869U 16072A   26188.82159972  .00000045  00000+0  00000+0 0  9999
2 41869   0.9206  82.7920 0043715  90.0268 225.5577  1.00269763 35500
WGS F8 (USA 272)        
1 41879U 16075A   26188.67372138  .00000000  00000+0  00000+0 0  9998
2 41879   0.0484  63.4796 0000199 254.8887 359.6596  1.00267803 35023
FENGYUN 4A              
1 41882U 16077A   26188.88243799 -.00000343  00000+0  00000+0 0  9998
2 41882   2.3716  80.0617 0008187 157.8956 129.3467  1.00272744 35132
ECHOSTAR 19             
1 41893U 16079A   26188.02040898 -.00000124  00000+0  00000+0 0  9990
2 41893   0.0191  35.4299 0001339  74.0084  85.8112  1.00271485 34908
JCSAT-110A (JCSAT-15)   
1 41903U 16082A   26188.80842632  .00000000  00000+0  00000+0 0  9990
2 41903   0.0250  30.7774 0000593 129.3130 166.7816  1.00269427 34968
STAR ONE D1             
1 41904U 16082B   26188.55617138 -.00000196  00000+0  00000+0 0  9991
2 41904   0.0140 310.7903 0002227 157.9986 292.9545  1.00271742 34979
TJS-2                   
1 41911U 17001A   26188.20044727  .00000008  00000+0  00000+0 0  9992
2 41911   0.8817  85.0771 0000859  78.8736 259.9617  1.00273258 34915
SBIRS GEO-4 (USA 273)   
1 41937U 17004A   26188.50572758  .00000140  00000+0  00000+0 0  9993
2 41937   2.2795  43.7758 0002759  64.1098  20.9999  1.00285097 34801
HISPASAT 36W-1          
1 41942U 17006A   26188.18794694 -.00000229  00000+0  00000+0 0  9999
2 41942   0.0438 220.6423 0001180 241.6750 214.5051  1.00271842 34449
TELKOM 3S               
1 41944U 17007A   26188.73872315  .00000000  00000+0  00000+0 0  9996
2 41944   0.0206  37.7017 0002114  74.6154 197.3240  1.00267571 34341
INTELSAT 32E (IS-32E)   
1 41945U 17007B   26188.70682822 -.00000254  00000+0  00000+0 0  9998
2 41945   0.0172 342.1462 0000722 358.9200 155.8895  1.00269388 34437
ECHOSTAR 23             
1 42070U 17014A   26188.62230117  .00000000  00000+0  00000+0 0  9991
2 42070   0.0242  35.4499 0001874  70.8399 293.4293  1.00269907 34129
WGS F9 (USA 275)        
1 42075U 17016A   26188.28528245  .00000000  00000+0  00000+0 0  9992
2 42075   0.0170   9.9080 0000591 150.1916 215.8636  1.00274508 34096
SES-10                  
1 42432U 17017A   26188.55955139 -.00000257  00000+0  00000+0 0  9991
2 42432   0.0161  40.0268 0002706  72.2217 307.8201  1.00268873 33957
CHINASAT 16 (SJ-13)     
1 42662U 17018A   26188.87983797 -.00000337  00000+0  00000+0 0  9992
2 42662   0.0865  89.2272 0004513 132.8348 131.0689  1.00271948 33953
KOREASAT 7              
1 42691U 17023A   26188.73828979 -.00000347  00000+0  00000+0 0  9996
2 42691   0.0177  10.2445 0000662 119.2908 177.8207  1.00271318 33572
SGDC                    
1 42692U 17023B   26188.41524993 -.00000234  00000+0  00000+0 0  9996
2 42692   0.0041  21.5618 0002442  92.1746 246.2917  1.00271265 33601
GSAT-9                  
1 42695U 17024A   26188.73464978 -.00000271  00000+0  00000+0 0  9992
2 42695   0.0691  92.1095 0002227  24.7053 170.6743  1.00270614 33504
INMARSAT 5-F4           
1 42698U 17025A   26188.08497053  .00000000  00000+0  00000+0 0  9993
2 42698   0.0237  37.0830 0000435 157.5592 177.5202  1.00273097 33470
SES-15                  
1 42709U 17026A   26188.39924428  .00000075  00000+0  00000+0 0  9994
2 42709   0.0247 324.3391 0001027 186.0407 149.5634  1.00271208  7637
QZS-2 (MICHIBIKI-2)     
1 42738U 17028A   26188.49126786 -.00000100  00000+0  00000+0 0  9990
2 42738  39.3970 242.8544 0758232 269.5081  92.2444  1.00278715  7838
VIASAT-2                
1 42740U 17029A   26188.77269663 -.00000250  00000+0  00000+0 0  9993
2 42740   0.0239 288.6551 0000285 292.3964 272.9849  1.00274112 33418
EUTELSAT 172B           
1 42741U 17029B   26188.50761458  .00000010  00000+0  00000+0 0  9997
2 42741   0.0310 127.0818 0000020 206.5956 306.5405  1.00271823 33942
GSAT-19                 
1 42747U 17031A   26188.72485640  .00000140  00000+0  00000+0 0  9990
2 42747   0.0188  84.2325 0006504   0.1101 150.1751  1.00271904 33353
ECHOSTAR 21             
1 42749U 17032A   26188.71740160  .00000080  00000+0  00000+0 0  9996
2 42749   1.7701 356.9850 0002201 101.6762  95.5389  1.00271501 33303
BULGARIASAT-1           
1 42801U 17038A   26188.71575492  .00000026  00000+0  00000+0 0  9995
2 42801   0.0208 291.8674 0003123 180.1316  73.2405  1.00272436 33050
HELLAS-SAT 3            
1 42814U 17040A   26187.86519932  .00000167  00000+0  00000+0 0  9990
2 42814   0.0589  55.1265 0003690  10.8786 209.3183  1.00273705 33002
GSAT-17                 
1 42815U 17040B   26188.73386978 -.00000242  00000+0  00000+0 0  9995
2 42815   0.0525  89.0591 0001850 173.2833  21.0308  1.00271506 32996
INTELSAT 35E (IS-35E)   
1 42818U 17041A   26188.70856154  .00000000  00000+0  00000+0 0  9995
2 42818   0.0210  22.2257 0001632  86.0046  38.0382  1.00269717 33029
COSMOS 2520             
1 42907U 17046A   26188.43911676  .00000152  00000+0  00000+0 0  9998
2 42907   0.0358 104.0602 0000514  42.7739 341.6432  1.00273380 32603
